SL-14 R/B               
1 21423U 91042B   25344.35092370  .00000752  00000+0  92241-4 0  9990
2 21423  82.4924 303.9630 0017234 169.4505 190.7074 14.81735391839846
ERS-1                   
1 21574U 91050A   25344.79049973  .00000511  00000+0  17805-3 0  9990
2 21574  98.7905 355.7965 0032977 105.6432 254.8398 14.39362051802944
ARIANE 40 R/B           
1 21610U 91050F   25344.42860286  .00000582  00000+0  18703-3 0  9995
2 21610  98.2167  34.9424 0002923   8.2561 351.8677 14.42810455806127
INTERCOSMOS 25          
1 21819U 91086A   25344.90161067  .00002229  00000+0  44282-3 0  9990
2 21819  82.6076   3.6875 1486747 308.3585  39.2742 12.11717986485939
SL-8 R/B                
1 21876U 92008B   25344.73849336  .00000169  00000+0  15833-3 0  9992
2 21876  82.9264 333.9351 0035311  25.3016 147.3725 13.75958236697183
SL-8 R/B                
1 21938U 92020B   25344.93953292  .00000118  00000+0  10662-3 0  9993
2 21938  82.9308 219.6543 0028777 183.2124 187.4021 13.75526571688936
USA 81                  
1 21949U 92023A   25344.79852138  .00000271  00000+0  92900-4 0  9995
2 21949  85.0082 182.6959 0001491  63.7626 296.3720 14.32325746 82067
COSMOS 2219             
1 22219U 92076A   25344.31948053 -.00000094  00000+0 -24422-4 0  9993
2 22219  71.0585 204.8924 0019043 330.1450  29.8585 14.14062525705746
SL-16 R/B               
1 22220U 92076B   25344.83280845 -.00000136  00000+0 -44000-4 0  9991
2 22220  71.0008  15.5492 0014863 236.8181 295.6995 14.16840999709241
COSMOS 2221             
1 22236U 92080A   25344.47643698  .00003096  00000+0  27497-3 0  9998
2 22236  82.5047   4.4917 0015895 128.5701 231.6948 14.95746727767454
SL-16 R/B               
1 22285U 92093B   25344.83597490  .00000287  00000+0  17158-3 0  9996
2 22285  71.0200 190.7923 0002127  78.1711 281.9650 14.15428004700589
COSMOS 2228             
1 22286U 92094A   25344.95209234  .00004123  00000+0  35794-3 0  9996
2 22286  82.5181 322.2448 0016435 237.9339 122.0288 14.96715321762789
