CCSDS_OMM_VERS = 2.0
CREATION_DATE  = 
ORIGINATOR     = 

OBJECT_NAME    = SL-14 R/B
OBJECT_ID      = 1991-042B
CENTER_NAME    = EARTH
REF_FRAME      = TEME
TIME_SYSTEM    = UTC
MEAN_ELEMENT_THEORY = SGP/SGP4

EPOCH          = 2025-12-10T08:25:19.807680
MEAN_MOTION    = 14.81735391
ECCENTRICITY   = .00172344
INCLINATION    = 82.4924
RA_OF_ASC_NODE = 303.9630
ARG_OF_PERICENTER = 169.4505
MEAN_ANOMALY   = 190.7074

EPHEMERIS_TYPE = 0
CLASSIFICATION_TYPE = U
NORAD_CAT_ID   = 21423
ELEMENT_SET_NO = 999
REV_AT_EPOCH   = 83984
BSTAR          = .92240888E-4
MEAN_MOTION_DOT = .752E-5
MEAN_MOTION_DDOT = 0

CCSDS_OMM_VERS = 2.0
CREATION_DATE  = 
ORIGINATOR     = 

OBJECT_NAME    = ERS-1
OBJECT_ID      = 1991-050A
CENTER_NAME    = EARTH
REF_FRAME      = TEME
TIME_SYSTEM    = UTC
MEAN_ELEMENT_THEORY = SGP/SGP4

EPOCH          = 2025-12-10T18:58:19.176672
MEAN_MOTION    = 14.39362051
ECCENTRICITY   = .00329777
INCLINATION    = 98.7905
RA_OF_ASC_NODE = 355.7965
ARG_OF_PERICENTER = 105.6432
MEAN_ANOMALY   = 254.8398

EPHEMERIS_TYPE = 0
CLASSIFICATION_TYPE = U
NORAD_CAT_ID   = 21574
ELEMENT_SET_NO = 999
REV_AT_EPOCH   = 80294
BSTAR          = .17804609E-3
MEAN_MOTION_DOT = .511E-5
MEAN_MOTION_DDOT = 0

CCSDS_OMM_VERS = 2.0
CREATION_DATE  = 
ORIGINATOR     = 

OBJECT_NAME    = ARIANE 40 R/B
OBJECT_ID      = 1991-050F
CENTER_NAME    = EARTH
REF_FRAME      = TEME
TIME_SYSTEM    = UTC
MEAN_ELEMENT_THEORY = SGP/SGP4

EPOCH          = 2025-12-10T10:17:11.287104
MEAN_MOTION    = 14.42810455
ECCENTRICITY   = .00029235
INCLINATION    = 98.2167
RA_OF_ASC_NODE = 34.9424
ARG_OF_PERICENTER = 8.2561
MEAN_ANOMALY   = 351.8677

EPHEMERIS_TYPE = 0
CLASSIFICATION_TYPE = U
NORAD_CAT_ID   = 21610
ELEMENT_SET_NO = 999
REV_AT_EPOCH   = 80612
BSTAR          = .18702864E-3
MEAN_MOTION_DOT = .582E-5
MEAN_MOTION_DDOT = 0

CCSDS_OMM_VERS = 2.0
CREATION_DATE  = 
ORIGINATOR     = 

OBJECT_NAME    = INTERCOSMOS 25
OBJECT_ID      = 1991-086A
CENTER_NAME    = EARTH
REF_FRAME      = TEME
TIME_SYSTEM    = UTC
MEAN_ELEMENT_THEORY = SGP/SGP4

EPOCH          = 2025-12-10T21:38:19.161888
MEAN_MOTION    = 12.11717986
ECCENTRICITY   = .14867479
INCLINATION    = 82.6076
RA_OF_ASC_NODE = 3.6875
ARG_OF_PERICENTER = 308.3585
MEAN_ANOMALY   = 39.2742

EPHEMERIS_TYPE = 0
CLASSIFICATION_TYPE = U
NORAD_CAT_ID   = 21819
ELEMENT_SET_NO = 999
REV_AT_EPOCH   = 48593
BSTAR          = .44282383E-3
MEAN_MOTION_DOT = .2229E-4
MEAN_MOTION_DDOT = 0

CCSDS_OMM_VERS = 2.0
CREATION_DATE  = 
ORIGINATOR     = 

OBJECT_NAME    = SL-8 R/B
OBJECT_ID      = 1992-008B
CENTER_NAME    = EARTH
REF_FRAME      = TEME
TIME_SYSTEM    = UTC
MEAN_ELEMENT_THEORY = SGP/SGP4

EPOCH          = 2025-12-10T17:43:25.826304
MEAN_MOTION    = 13.75958236
ECCENTRICITY   = .00353114
INCLINATION    = 82.9264
RA_OF_ASC_NODE = 333.9351
ARG_OF_PERICENTER = 25.3016
MEAN_ANOMALY   = 147.3725

EPHEMERIS_TYPE = 0
CLASSIFICATION_TYPE = U
NORAD_CAT_ID   = 21876
ELEMENT_SET_NO = 999
REV_AT_EPOCH   = 69718
BSTAR          = .15833008E-3
MEAN_MOTION_DOT = .169E-5
MEAN_MOTION_DDOT = 0

CCSDS_OMM_VERS = 2.0
CREATION_DATE  = 
ORIGINATOR     = 

OBJECT_NAME    = SL-8 R/B
OBJECT_ID      = 1992-020B
CENTER_NAME    = EARTH
REF_FRAME      = TEME
TIME_SYSTEM    = UTC
MEAN_ELEMENT_THEORY = SGP/SGP4

EPOCH          = 2025-12-10T22:32:55.644288
MEAN_MOTION    = 13.75526571
ECCENTRICITY   = .00287774
INCLINATION    = 82.9308
RA_OF_ASC_NODE = 219.6543
ARG_OF_PERICENTER = 183.2124
MEAN_ANOMALY   = 187.4021

EPHEMERIS_TYPE = 0
CLASSIFICATION_TYPE = U
NORAD_CAT_ID   = 21938
ELEMENT_SET_NO = 999
REV_AT_EPOCH   = 68893
BSTAR          = .10661759E-3
MEAN_MOTION_DOT = .118E-5
MEAN_MOTION_DDOT = 0

CCSDS_OMM_VERS = 2.0
CREATION_DATE  = 
ORIGINATOR     = 

OBJECT_NAME    = USA 81
OBJECT_ID      = 1992-023A
CENTER_NAME    = EARTH
REF_FRAME      = TEME
TIME_SYSTEM    = UTC
MEAN_ELEMENT_THEORY = SGP/SGP4

EPOCH          = 2025-12-10T19:09:52.247232
MEAN_MOTION    = 14.32325746
ECCENTRICITY   = .00014913
INCLINATION    = 85.0082
RA_OF_ASC_NODE = 182.6959
ARG_OF_PERICENTER = 63.7626
MEAN_ANOMALY   = 296.3720

EPHEMERIS_TYPE = 0
CLASSIFICATION_TYPE = U
NORAD_CAT_ID   = 21949
ELEMENT_SET_NO = 999
REV_AT_EPOCH   = 8206
BSTAR          = .9290012E-4
MEAN_MOTION_DOT = .271E-5
MEAN_MOTION_DDOT = 0

CCSDS_OMM_VERS = 2.0
CREATION_DATE  = 
ORIGINATOR     = 

OBJECT_NAME    = COSMOS 2219
OBJECT_ID      = 1992-076A
CENTER_NAME    = EARTH
REF_FRAME      = TEME
TIME_SYSTEM    = UTC
MEAN_ELEMENT_THEORY = SGP/SGP4

EPOCH          = 2025-12-10T07:40:03.117792
MEAN_MOTION    = 14.14062525
ECCENTRICITY   = .00190435
INCLINATION    = 71.0585
RA_OF_ASC_NODE = 204.8924
ARG_OF_PERICENTER = 330.1450
MEAN_ANOMALY   = 29.8585

EPHEMERIS_TYPE = 0
CLASSIFICATION_TYPE = U
NORAD_CAT_ID   = 22219
ELEMENT_SET_NO = 999
REV_AT_EPOCH   = 70574
BSTAR          = -.2442227E-4
MEAN_MOTION_DOT = -.94E-6
MEAN_MOTION_DDOT = 0

CCSDS_OMM_VERS = 2.0
CREATION_DATE  = 
ORIGINATOR     = 

OBJECT_NAME    = SL-16 R/B
OBJECT_ID      = 1992-076B
CENTER_NAME    = EARTH
REF_FRAME      = TEME
TIME_SYSTEM    = UTC
MEAN_ELEMENT_THEORY = SGP/SGP4

EPOCH          = 2025-12-10T19:59:14.650080
MEAN_MOTION    = 14.16840999
ECCENTRICITY   = .00148638
INCLINATION    = 71.0008
RA_OF_ASC_NODE = 15.5492
ARG_OF_PERICENTER = 236.8181
MEAN_ANOMALY   = 295.6995

EPHEMERIS_TYPE = 0
CLASSIFICATION_TYPE = U
NORAD_CAT_ID   = 22220
ELEMENT_SET_NO = 999
REV_AT_EPOCH   = 70924
BSTAR          = -.43999948E-4
MEAN_MOTION_DOT = -.136E-5
MEAN_MOTION_DDOT = 0

CCSDS_OMM_VERS = 2.0
CREATION_DATE  = 
ORIGINATOR     = 

OBJECT_NAME    = COSMOS 2221
OBJECT_ID      = 1992-080A
CENTER_NAME    = EARTH
REF_FRAME      = TEME
TIME_SYSTEM    = UTC
MEAN_ELEMENT_THEORY = SGP/SGP4

EPOCH          = 2025-12-10T11:26:04.155072
MEAN_MOTION    = 14.95746727
ECCENTRICITY   = .00158957
INCLINATION    = 82.5047
RA_OF_ASC_NODE = 4.4917
ARG_OF_PERICENTER = 128.5701
MEAN_ANOMALY   = 231.6948

EPHEMERIS_TYPE = 0
CLASSIFICATION_TYPE = U
NORAD_CAT_ID   = 22236
ELEMENT_SET_NO = 999
REV_AT_EPOCH   = 76745
BSTAR          = .27497191E-3
MEAN_MOTION_DOT = .3096E-4
MEAN_MOTION_DDOT = 0

CCSDS_OMM_VERS = 2.0
CREATION_DATE  = 
ORIGINATOR     = 

OBJECT_NAME    = SL-16 R/B
OBJECT_ID      = 1992-093B
CENTER_NAME    = EARTH
REF_FRAME      = TEME
TIME_SYSTEM    = UTC
MEAN_ELEMENT_THEORY = SGP/SGP4

EPOCH          = 2025-12-10T20:03:48.231360
MEAN_MOTION    = 14.15428004
ECCENTRICITY   = .00021273
INCLINATION    = 71.0200
RA_OF_ASC_NODE = 190.7923
ARG_OF_PERICENTER = 78.1711
MEAN_ANOMALY   = 281.9650

EPHEMERIS_TYPE = 0
CLASSIFICATION_TYPE = U
NORAD_CAT_ID   = 22285
ELEMENT_SET_NO = 999
REV_AT_EPOCH   = 70058
BSTAR          = .17157807E-3
MEAN_MOTION_DOT = .287E-5
MEAN_MOTION_DDOT = 0

CCSDS_OMM_VERS = 2.0
CREATION_DATE  = 
ORIGINATOR     = 

OBJECT_NAME    = COSMOS 2228
OBJECT_ID      = 1992-094A
CENTER_NAME    = EARTH
REF_FRAME      = TEME
TIME_SYSTEM    = UTC
MEAN_ELEMENT_THEORY = SGP/SGP4

EPOCH          = 2025-12-10T22:51:00.778176
MEAN_MOTION    = 14.96715321
ECCENTRICITY   = .00164356
INCLINATION    = 82.5181
RA_OF_ASC_NODE = 322.2448
ARG_OF_PERICENTER = 237.9339
MEAN_ANOMALY   = 122.0288

EPHEMERIS_TYPE = 0
CLASSIFICATION_TYPE = U
NORAD_CAT_ID   = 22286
ELEMENT_SET_NO = 999
REV_AT_EPOCH   = 76278
BSTAR          = .35794101E-3
MEAN_MOTION_DOT = .4123E-4
MEAN_MOTION_DDOT = 0

